[{"OBJECT_NAME":"STARLINK-32698","OBJECT_ID":"2024-239M","EPOCH":"2026-03-09T14:02:03.161184","MEAN_MOTION":15.30145167,"ECCENTRICITY":0.000118,"INCLINATION":53.1585,"RA_OF_ASC_NODE":194.7038,"ARG_OF_PERICENTER":95.0575,"MEAN_ANOMALY":265.056,"EPHEMERIS_TYPE":0,"CLASSIFICATION_TYPE":"U","NORAD_CAT_ID":62312,"ELEMENT_SET_NO":999,"REV_AT_EPOCH":6936,"BSTAR":0.0012139,"MEAN_MOTION_DOT":0.00035706,"MEAN_MOTION_DDOT":0},{"OBJECT_NAME":"USA 55","OBJECT_ID":"1990-028B","EPOCH":"2026-03-09T23:32:27.967200","MEAN_MOTION":15.43003152,"ECCENTRICITY":0.00579189,"INCLINATION":94.0887,"RA_OF_ASC_NODE":87.6293,"ARG_OF_PERICENTER":152.9949,"MEAN_ANOMALY":207.4341,"EPHEMERIS_TYPE":0,"CLASSIFICATION_TYPE":"U","NORAD_CAT_ID":20547,"ELEMENT_SET_NO":999,"REV_AT_EPOCH":98658,"BSTAR":0.00013659834,"MEAN_MOTION_DOT":6.373e-5,"MEAN_MOTION_DDOT":0}]
